IONOSFERA-M 2           
1 61736U 24199B   26157.89019380  .00000052  00000+0  42748-4 0  9992
2 61736  98.7185  31.0813 0001443  48.1578 311.9723 14.22755606129369
PRSC-EO1                
1 62725U 25012A   26156.78537380  .00004564  00000+0  23021-3 0  9992
2 62725  97.4223 229.4677 0004308 306.3423  53.7413 15.17617532 76468
BIOMASS                 
1 63772U 25090A   26157.80614672  .00000851  00000+0  15846-3 0  9996
2 63772  98.0739 345.2743 0001520  87.8145 272.3234 14.67536140 59163
GOSAT-GW (IBUKI GW)     
1 64694U 25141A   26157.89474377  .00000805  00000+0  15029-3 0  9994
2 64694  98.0572  95.3792 0001422  84.1423 275.9943 14.67553133 50336
IONOSFERA-M 3           
1 64876U 25155A   26157.96905847  .00000064  00000+0  48809-4 0  9990
2 64876  98.6026 120.1316 0000400 180.5687 179.5490 14.21484717 44953
IONOSFERA-M 4           
1 64877U 25155B   26157.93352744  .00000071  00000+0  52000-4 0  9996
2 64877  98.6019 120.0145 0000700 114.6381 245.4870 14.21486917 44945
MICROCARB               
1 64899U 25156A   26157.47987538  .00000602  00000+0  10291-3 0  9990
2 64899  97.9831 234.8082 0015210 309.6025  50.3839 14.72314846 46396
CO3D 3                  
1 64900U 25156B   26157.91927875  .00005283  00000+0  24701-3 0  9991
2 64900  97.4325 236.7605 0001000 136.7552 223.3762 15.20196609 47971
CO3D 4                  
1 64901U 25156C   26157.91942868  .00000365  00000+0  19966-4 0  9995
2 64901  97.4331 236.7604 0000859  29.4900 330.6383 15.20204720 47979
CO3D 2                  
1 64902U 25156D   26157.95190907  .00002991  00000+0  14128-3 0  9990
2 64902  97.4324 236.6913 0001346 115.7835 244.3539 15.20191554 47976
CO3D 1                  
1 64903U 25156E   26157.95206302  .00005411  00000+0  25291-3 0  9991
2 64903  97.4323 236.6917 0001152 118.3426 241.7925 15.20202543 47971
PRSC-S1                 
1 65055U 25164A   26157.92129185  .00005703  00000+0  39214-3 0  9993
2 65055  41.1315 345.6258 0007626 283.8419  76.1546 15.06362079 46881
SENTINEL-6B             
1 66514U 25264A   26157.70173210 -.00000047  00000+0  61432-4 0  9994
2 66514  66.0384 156.9570 0008062 269.3704  90.6388 12.80929670 25826
CAS500-3                
1 66655U 25274F   26157.39092015  .00001453  00000+0  16291-3 0  9992
2 66655  97.7446  85.6877 0006162 138.7291 221.4392 14.88295553 28546
CSG-3                   
1 67304U 26001A   26157.46483848  .00000370  00000+0  53025-4 0  9993
2 67304  97.8887 341.2223 0001329  95.2716 264.8649 14.82161770 22876
PRSC-E03                
1 68835U 26092A   26157.91537244  .00002430  00000+0  16804-3 0  9995
2 68835  37.9994 150.2498 0005221 294.3401  65.6815 15.06619543  6406
CAS500-2                
1 69013U 26100AK  26157.62280714  .00007558  00000+0  34869-3 0  9996
2 69013  97.4078  55.6607 0011511  67.5940 292.6514 15.20462654  5206
