OBJECT_NAME,OBJECT_ID,EPOCH,MEAN_MOTION,ECCENTRICITY,INCLINATION,RA_OF_ASC_NODE,ARG_OF_PERICENTER,MEAN_ANOMALY,EPHEMERIS_TYPE,CLASSIFICATION_TYPE,NORAD_CAT_ID,ELEMENT_SET_NO,REV_AT_EPOCH,BSTAR,MEAN_MOTION_DOT,MEAN_MOTION_DDOT
IONOSFERA-M 2,2024-199B,2026-06-06T21:21:52.744320,14.22755606,.00014436,98.7185,31.0813,48.1578,311.9723,0,U,61736,999,12936,.42748249E-4,.52E-6,0
PRSC-EO1,2025-012A,2026-06-05T18:50:56.296320,15.17617532,.00043082,97.4223,229.4677,306.3423,53.7413,0,U,62725,999,7646,.23021059E-3,.4564E-4,0
BIOMASS,2025-090A,2026-06-06T19:20:51.076608,14.67536140,.00015208,98.0739,345.2743,87.8145,272.3234,0,U,63772,999,5916,.15846497E-3,.851E-5,0
GOSAT-GW (IBUKI GW),2025-141A,2026-06-06T21:28:25.861728,14.67553133,.00014229,98.0572,95.3792,84.1423,275.9943,0,U,64694,999,5033,.15028623E-3,.805E-5,0
IONOSFERA-M 3,2025-155A,2026-06-06T23:15:26.651808,14.21484717,.00004003,98.6026,120.1316,180.5687,179.5490,0,U,64876,999,4495,.48808716E-4,.64E-6,0
IONOSFERA-M 4,2025-155B,2026-06-06T22:24:16.770816,14.21486917,.00007008,98.6019,120.0145,114.6381,245.4870,0,U,64877,999,4494,.52000366E-4,.71E-6,0
MICROCARB,2025-156A,2026-06-06T11:31:01.232832,14.72314846,.00152104,97.9831,234.8082,309.6025,50.3839,0,U,64899,999,4639,.10291029E-3,.602E-5,0
CO3D 3,2025-156B,2026-06-06T22:03:45.684000,15.20196609,.00010001,97.4325,236.7605,136.7552,223.3762,0,U,64900,999,4797,.24701346E-3,.5283E-4,0
CO3D 4,2025-156C,2026-06-06T22:03:58.637952,15.20204720,.00008599,97.4331,236.7604,29.4900,330.6383,0,U,64901,999,4797,.19966038E-4,.365E-5,0
CO3D 2,2025-156D,2026-06-06T22:50:44.943648,15.20191554,.00013461,97.4324,236.6913,115.7835,244.3539,0,U,64902,999,4797,.14127585E-3,.2991E-4,0
CO3D 1,2025-156E,2026-06-06T22:50:58.244928,15.20202543,.00011521,97.4323,236.6917,118.3426,241.7925,0,U,64903,999,4797,.25291018E-3,.5411E-4,0
PRSC-S1,2025-164A,2026-06-06T22:06:39.615840,15.06362079,.00076263,41.1315,345.6258,283.8419,76.1546,0,U,65055,999,4688,.39213694E-3,.5703E-4,0
SENTINEL-6B,2025-264A,2026-06-06T16:50:29.653440,12.80929670,.00080629,66.0384,156.9570,269.3704,90.6388,0,U,66514,999,2582,.61432456E-4,-.47E-6,0
CAS500-3,2025-274F,2026-06-06T09:22:55.500960,14.88295553,.00061623,97.7446,85.6877,138.7291,221.4392,0,U,66655,999,2854,.16291092E-3,.1453E-4,0
CSG-3,2026-001A,2026-06-06T11:09:22.044672,14.82161770,.00013296,97.8887,341.2223,95.2716,264.8649,0,U,67304,999,2287,.53024722E-4,.37E-5,0
PRSC-E03,2026-092A,2026-06-06T21:58:08.178816,15.06619543,.00052211,37.9994,150.2498,294.3401,65.6815,0,U,68835,999,640,.16804104E-3,.243E-4,0
CAS500-2,2026-100AK,2026-06-06T14:56:50.536896,15.20462654,.00115113,97.4078,55.6607,67.5940,292.6514,0,U,69013,999,520,.34869049E-3,.7558E-4,0
